IRIDIUM 63              
1 25286U 98021B   25047.73922709  .00000648  00000+0  21488-3 0  9993
2 25286  86.4014 132.6654 0002016  94.3402 265.8025 14.36380212406824
IRIDIUM 69              
1 25319U 98026A   25047.56443437  .00001148  00000+0  35304-3 0  9990
2 25319  86.4031 146.3787 0004255  78.8407 281.3271 14.40759291405690
IRIDIUM 71              
1 25320U 98026B   25047.79630081  .00000887  00000+0  27010-3 0  9994
2 25320  86.4020 140.9985 0004150 110.2151 249.9495 14.40976092406500
IRIDIUM 73              
1 25344U 98032C   25047.56553741  .00001032  00000+0  25368-3 0  9996
2 25344  86.4378  98.0658 0002801  83.3988 276.7536 14.51432715413065
IRIDIUM 82              
1 25467U 98051A   25047.84239005  .00028843  00000+0  10142-2 0  9990
2 25467  86.3764 168.5332 0099212  32.1427 328.5814 15.24558270405571
